[{"OBJECT_NAME":"HERMES-3","OBJECT_ID":"2025-052BR","EPOCH":"2026-03-09T22:30:01.073952","MEAN_MOTION":15.30039786,"ECCENTRICITY":0.00079928,"INCLINATION":97.3987,"RA_OF_ASC_NODE":324.6131,"ARG_OF_PERICENTER":112.9583,"MEAN_ANOMALY":247.2502,"EPHEMERIS_TYPE":0,"CLASSIFICATION_TYPE":"U","NORAD_CAT_ID":63835,"ELEMENT_SET_NO":999,"REV_AT_EPOCH":5486,"BSTAR":0.0006995793,"MEAN_MOTION_DOT":0.00020316,"MEAN_MOTION_DDOT":0},{"OBJECT_NAME":"STARLINK-34752","OBJECT_ID":"2025-240H","EPOCH":"2026-03-09T10:13:08.148864","MEAN_MOTION":15.30200647,"ECCENTRICITY":0.00011088,"INCLINATION":53.1597,"RA_OF_ASC_NODE":64.3528,"ARG_OF_PERICENTER":102.6547,"MEAN_ANOMALY":257.4578,"EPHEMERIS_TYPE":0,"CLASSIFICATION_TYPE":"U","NORAD_CAT_ID":66153,"ELEMENT_SET_NO":999,"REV_AT_EPOCH":2194,"BSTAR":0.00055958175,"MEAN_MOTION_DOT":0.00016251,"MEAN_MOTION_DDOT":0}]
